[{"OBJECT_NAME":"STARLINK-3914","OBJECT_ID":"2022-049AR","EPOCH":"2025-08-10T20:28:38.425728","MEAN_MOTION":15.08834989,"ECCENTRICITY":0.0001252,"INCLINATION":53.2159,"RA_OF_ASC_NODE":275.6059,"ARG_OF_PERICENTER":85.1203,"MEAN_ANOMALY":274.9932,"EPHEMERIS_TYPE":0,"CLASSIFICATION_TYPE":"U","NORAD_CAT_ID":52490,"ELEMENT_SET_NO":999,"REV_AT_EPOCH":18056,"BSTAR":2.1419e-5,"MEAN_MOTION_DOT":5.3e-7,"MEAN_MOTION_DDOT":0},{"OBJECT_NAME":"STARLINK-3908","OBJECT_ID":"2022-049AS","EPOCH":"2025-08-10T20:39:14.777280","MEAN_MOTION":15.08824337,"ECCENTRICITY":0.0001049,"INCLINATION":53.2169,"RA_OF_ASC_NODE":275.573,"ARG_OF_PERICENTER":77.9833,"MEAN_ANOMALY":282.1277,"EPHEMERIS_TYPE":0,"CLASSIFICATION_TYPE":"U","NORAD_CAT_ID":52491,"ELEMENT_SET_NO":999,"REV_AT_EPOCH":18056,"BSTAR":-0.00011462,"MEAN_MOTION_DOT":-2.111e-5,"MEAN_MOTION_DDOT":0},{"OBJECT_NAME":"STARLINK-3916","OBJECT_ID":"2022-049AT","EPOCH":"2025-08-10T20:18:02.558016","MEAN_MOTION":15.08832531,"ECCENTRICITY":0.0001231,"INCLINATION":53.2162,"RA_OF_ASC_NODE":275.6368,"ARG_OF_PERICENTER":90.2817,"MEAN_ANOMALY":269.8316,"EPHEMERIS_TYPE":0,"CLASSIFICATION_TYPE":"U","NORAD_CAT_ID":52492,"ELEMENT_SET_NO":999,"REV_AT_EPOCH":18056,"BSTAR":-3.3665e-5,"MEAN_MOTION_DOT":-8.23e-6,"MEAN_MOTION_DDOT":0},{"OBJECT_NAME":"STARLINK-3883","OBJECT_ID":"2022-049AU","EPOCH":"2025-08-10T20:33:56.532384","MEAN_MOTION":15.0884707,"ECCENTRICITY":0.0001156,"INCLINATION":53.2156,"RA_OF_ASC_NODE":275.5877,"ARG_OF_PERICENTER":90.3864,"MEAN_ANOMALY":269.7261,"EPHEMERIS_TYPE":0,"CLASSIFICATION_TYPE":"U","NORAD_CAT_ID":52493,"ELEMENT_SET_NO":999,"REV_AT_EPOCH":18056,"BSTAR":7.1409e-5,"MEAN_MOTION_DOT":8.49e-6,"MEAN_MOTION_DDOT":0},{"OBJECT_NAME":"STARLINK-3857","OBJECT_ID":"2022-049AV","EPOCH":"2025-08-11T03:59:04.620480","MEAN_MOTION":15.08832288,"ECCENTRICITY":0.0001408,"INCLINATION":53.2182,"RA_OF_ASC_NODE":274.1993,"ARG_OF_PERICENTER":93.0436,"MEAN_ANOMALY":267.0718,"EPHEMERIS_TYPE":0,"CLASSIFICATION_TYPE":"U","NORAD_CAT_ID":52494,"ELEMENT_SET_NO":999,"REV_AT_EPOCH":18061,"BSTAR":-4.3039e-5,"MEAN_MOTION_DOT":-9.73e-6,"MEAN_MOTION_DDOT":0},{"OBJECT_NAME":"STARLINK-3871","OBJECT_ID":"2022-049AX","EPOCH":"2025-08-10T20:53:08.401632","MEAN_MOTION":15.08836413,"ECCENTRICITY":0.0001264,"INCLINATION":53.2173,"RA_OF_ASC_NODE":270.5268,"ARG_OF_PERICENTER":80.0027,"MEAN_ANOMALY":280.1108,"EPHEMERIS_TYPE":0,"CLASSIFICATION_TYPE":"U","NORAD_CAT_ID":52496,"ELEMENT_SET_NO":999,"REV_AT_EPOCH":18063,"BSTAR":8.7736e-5,"MEAN_MOTION_DOT":1.109e-5,"MEAN_MOTION_DDOT":0},{"OBJECT_NAME":"STARLINK-3884","OBJECT_ID":"2022-049AY","EPOCH":"2025-08-11T04:09:40.206528","MEAN_MOTION":15.08843914,"ECCENTRICITY":0.0001104,"INCLINATION":53.2183,"RA_OF_ASC_NODE":274.1678,"ARG_OF_PERICENTER":86.9922,"MEAN_ANOMALY":273.1196,"EPHEMERIS_TYPE":0,"CLASSIFICATION_TYPE":"U","NORAD_CAT_ID":52497,"ELEMENT_SET_NO":999,"REV_AT_EPOCH":18061,"BSTAR":7.3096e-5,"MEAN_MOTION_DOT":8.76e-6,"MEAN_MOTION_DDOT":0},{"OBJECT_NAME":"STARLINK-3925","OBJECT_ID":"2022-049AZ","EPOCH":"2025-08-11T03:33:54.186048","MEAN_MOTION":15.08834694,"ECCENTRICITY":0.0001155,"INCLINATION":53.2165,"RA_OF_ASC_NODE":264.2777,"ARG_OF_PERICENTER":83.6899,"MEAN_ANOMALY":276.4224,"EPHEMERIS_TYPE":0,"CLASSIFICATION_TYPE":"U","NORAD_CAT_ID":52498,"ELEMENT_SET_NO":999,"REV_AT_EPOCH":18074,"BSTAR":4.8052e-6,"MEAN_MOTION_DOT":-2.11e-6,"MEAN_MOTION_DDOT":0},{"OBJECT_NAME":"STARLINK-3894","OBJECT_ID":"2022-049BA","EPOCH":"2025-08-11T04:04:22.420416","MEAN_MOTION":15.08832644,"ECCENTRICITY":0.0001284,"INCLINATION":53.2149,"RA_OF_ASC_NODE":274.1819,"ARG_OF_PERICENTER":78.6575,"MEAN_ANOMALY":281.4561,"EPHEMERIS_TYPE":0,"CLASSIFICATION_TYPE":"U","NORAD_CAT_ID":52499,"ELEMENT_SET_NO":999,"REV_AT_EPOCH":18061,"BSTAR":-3.528e-6,"MEAN_MOTION_DOT":-3.44e-6,"MEAN_MOTION_DDOT":0},{"OBJECT_NAME":"STARLINK-3866","OBJECT_ID":"2022-049BB","EPOCH":"2025-08-11T01:53:14.107200","MEAN_MOTION":15.0884243,"ECCENTRICITY":0.0001372,"INCLINATION":53.2192,"RA_OF_ASC_NODE":264.5905,"ARG_OF_PERICENTER":92.4332,"MEAN_ANOMALY":267.6817,"EPHEMERIS_TYPE":0,"CLASSIFICATION_TYPE":"U","NORAD_CAT_ID":52500,"ELEMENT_SET_NO":999,"REV_AT_EPOCH":18073,"BSTAR":-0.0001289,"MEAN_MOTION_DOT":-2.339e-5,"MEAN_MOTION_DDOT":0},{"OBJECT_NAME":"STARLINK-3907","OBJECT_ID":"2022-049BC","EPOCH":"2025-08-10T21:11:00.034656","MEAN_MOTION":15.08835718,"ECCENTRICITY":0.0001225,"INCLINATION":53.2168,"RA_OF_ASC_NODE":275.2678,"ARG_OF_PERICENTER":84.1118,"MEAN_ANOMALY":276.0013,"EPHEMERIS_TYPE":0,"CLASSIFICATION_TYPE":"U","NORAD_CAT_ID":52501,"ELEMENT_SET_NO":999,"REV_AT_EPOCH":18057,"BSTAR":-3.6966e-5,"MEAN_MOTION_DOT":-8.76e-6,"MEAN_MOTION_DDOT":0},{"OBJECT_NAME":"STARLINK-3912","OBJECT_ID":"2022-049BD","EPOCH":"2025-08-10T19:26:22.592544","MEAN_MOTION":15.08837578,"ECCENTRICITY":0.0001211,"INCLINATION":53.217,"RA_OF_ASC_NODE":265.826,"ARG_OF_PERICENTER":91.8663,"MEAN_ANOMALY":268.2468,"EPHEMERIS_TYPE":0,"CLASSIFICATION_TYPE":"U","NORAD_CAT_ID":52502,"ELEMENT_SET_NO":999,"REV_AT_EPOCH":18069,"BSTAR":5.9337e-5,"MEAN_MOTION_DOT":6.57e-6,"MEAN_MOTION_DDOT":0},{"OBJECT_NAME":"STARLINK-3861","OBJECT_ID":"2022-049BE","EPOCH":"2025-08-10T09:38:08.222784","MEAN_MOTION":15.08838361,"ECCENTRICITY":0.0001223,"INCLINATION":53.2167,"RA_OF_ASC_NODE":267.5146,"ARG_OF_PERICENTER":88.2624,"MEAN_ANOMALY":271.8508,"EPHEMERIS_TYPE":0,"CLASSIFICATION_TYPE":"U","NORAD_CAT_ID":52503,"ELEMENT_SET_NO":999,"REV_AT_EPOCH":18079,"BSTAR":-4.7661e-6,"MEAN_MOTION_DOT":-3.64e-6,"MEAN_MOTION_DDOT":0},{"OBJECT_NAME":"STARLINK-3952","OBJECT_ID":"2022-051B","EPOCH":"2025-08-11T01:41:17.349216","MEAN_MOTION":15.08837284,"ECCENTRICITY":0.0001284,"INCLINATION":53.2189,"RA_OF_ASC_NODE":354.6318,"ARG_OF_PERICENTER":89.928,"MEAN_ANOMALY":270.186,"EPHEMERIS_TYPE":0,"CLASSIFICATION_TYPE":"U","NORAD_CAT_ID":52534,"ELEMENT_SET_NO":999,"REV_AT_EPOCH":18038,"BSTAR":1.6909e-5,"MEAN_MOTION_DOT":-1.9e-7,"MEAN_MOTION_DDOT":0},{"OBJECT_NAME":"STARLINK-3958","OBJECT_ID":"2022-051C","EPOCH":"2025-08-11T01:36:00.129888","MEAN_MOTION":15.08830821,"ECCENTRICITY":0.0001099,"INCLINATION":53.2206,"RA_OF_ASC_NODE":354.6481,"ARG_OF_PERICENTER":101.0264,"MEAN_ANOMALY":259.0852,"EPHEMERIS_TYPE":0,"CLASSIFICATION_TYPE":"U","NORAD_CAT_ID":52535,"ELEMENT_SET_NO":999,"REV_AT_EPOCH":17964,"BSTAR":-5.1393e-5,"MEAN_MOTION_DOT":-1.105e-5,"MEAN_MOTION_DDOT":0},{"OBJECT_NAME":"STARLINK-3964","OBJECT_ID":"2022-051D","EPOCH":"2025-08-11T01:30:42.334272","MEAN_MOTION":15.08829263,"ECCENTRICITY":0.000119,"INCLINATION":53.219,"RA_OF_ASC_NODE":354.6593,"ARG_OF_PERICENTER":81.9852,"MEAN_ANOMALY":278.1275,"EPHEMERIS_TYPE":0,"CLASSIFICATION_TYPE":"U","NORAD_CAT_ID":52536,"ELEMENT_SET_NO":999,"REV_AT_EPOCH":17964,"BSTAR":-5.1699e-5,"MEAN_MOTION_DOT":-1.11e-5,"MEAN_MOTION_DDOT":0},{"OBJECT_NAME":"STARLINK-3897","OBJECT_ID":"2022-051E","EPOCH":"2025-08-10T15:26:33.703296","MEAN_MOTION":15.08827903,"ECCENTRICITY":0.0001136,"INCLINATION":53.2188,"RA_OF_ASC_NODE":356.3514,"ARG_OF_PERICENTER":93.7812,"MEAN_ANOMALY":266.331,"EPHEMERIS_TYPE":0,"CLASSIFICATION_TYPE":"U","NORAD_CAT_ID":52537,"ELEMENT_SET_NO":999,"REV_AT_EPOCH":17965,"BSTAR":-9.65e-5,"MEAN_MOTION_DOT":-1.823e-5,"MEAN_MOTION_DDOT":0}]
