STARLINK-3914           
1 52490U 22049AR  25222.85322252  .00000053  00000+0  21419-4 0  9997
2 52490  53.2159 275.6059 0001252  85.1203 274.9932 15.08834989180561
STARLINK-3908           
1 52491U 22049AS  25222.86058770 -.00002111  00000+0 -11462-3 0  9995
2 52491  53.2169 275.5730 0001049  77.9833 282.1277 15.08824337180569
STARLINK-3916           
1 52492U 22049AT  25222.84586294 -.00000823  00000+0 -33665-4 0  9999
2 52492  53.2162 275.6368 0001231  90.2817 269.8316 15.08832531180565
STARLINK-3883           
1 52493U 22049AU  25222.85690431  .00000849  00000+0  71409-4 0  9994
2 52493  53.2156 275.5877 0001156  90.3864 269.7261 15.08847070180564
STARLINK-3857           
1 52494U 22049AV  25223.16602570 -.00000973  00000+0 -43039-4 0  9995
2 52494  53.2182 274.1993 0001408  93.0436 267.0718 15.08832288180612
STARLINK-3871           
1 52496U 22049AX  25222.87023613  .00001109  00000+0  87736-4 0  9991
2 52496  53.2173 270.5268 0001264  80.0027 280.1108 15.08836413180636
STARLINK-3884           
1 52497U 22049AY  25223.17338202  .00000876  00000+0  73096-4 0  9993
2 52497  53.2183 274.1678 0001104  86.9922 273.1196 15.08843914180616
STARLINK-3925           
1 52498U 22049AZ  25223.14854382 -.00000211  00000+0  48052-5 0  9992
2 52498  53.2165 264.2777 0001155  83.6899 276.4224 15.08834694180747
STARLINK-3894           
1 52499U 22049BA  25223.16970394 -.00000344  00000+0 -35280-5 0  9994
2 52499  53.2149 274.1819 0001284  78.6575 281.4561 15.08832644180614
STARLINK-3866           
1 52500U 22049BB  25223.07863550 -.00002339  00000+0 -12890-3 0  9998
2 52500  53.2192 264.5905 0001372  92.4332 267.6817 15.08842430180734
STARLINK-3907           
1 52501U 22049BC  25222.88263929 -.00000876  00000+0 -36966-4 0  9996
2 52501  53.2168 275.2678 0001225  84.1118 276.0013 15.08835718180576
STARLINK-3912           
1 52502U 22049BD  25222.80998371  .00000657  00000+0  59337-4 0  9997
2 52502  53.2170 265.8260 0001211  91.8663 268.2468 15.08837578180693
STARLINK-3861           
1 52503U 22049BE  25222.40148406 -.00000364  00000+0 -47661-5 0  9995
2 52503  53.2167 267.5146 0001223  88.2624 271.8508 15.08838361180799
STARLINK-3952           
1 52534U 22051B   25223.07033969 -.00000019  00000+0  16909-4 0  9999
2 52534  53.2189 354.6318 0001284  89.9280 270.1860 15.08837284180380
STARLINK-3958           
1 52535U 22051C   25223.06666817 -.00001105  00000+0 -51393-4 0  9997
2 52535  53.2206 354.6481 0001099 101.0264 259.0852 15.08830821179648
STARLINK-3964           
1 52536U 22051D   25223.06298998 -.00001110  00000+0 -51699-4 0  9994
2 52536  53.2190 354.6593 0001190  81.9852 278.1275 15.08829263179645
STARLINK-3897           
1 52537U 22051E   25222.64344564 -.00001823  00000+0 -96500-4 0  9990
2 52537  53.2188 356.3514 0001136  93.7812 266.3310 15.08827903179651
